[
    {
        "name": "NOAA 15",
        "first tle line": "1 25338U 98030A   25242.07726612  .00000176  00000+0  89939-4 0  9992",
        "second tle line": "2 25338  98.5330 265.2374 0011335 117.8544 242.3787 14.27008322419773"
    },
    {
        "name": "NOAA 18",
        "first tle line": "1 28654U 05018A   25242.16040443  .00000162  00000+0  10909-3 0  9996",
        "second tle line": "2 28654  98.8383 320.7065 0013200 256.6734 103.2967 14.13631562 45197"
    },
    {
        "name": "NOAA 19",
        "first tle line": "1 33591U 09005A   25242.10925884  .00000143  00000+0  10030-3 0  9991",
        "second tle line": "2 33591  98.9909 307.2482 0014627 131.0980 229.1458 14.13400384853369"
    },
    {
        "name": "NOAA 20 (JPSS-1)",
        "first tle line": "1 43013U 17073A   25242.10841713  .00000097  00000+0  66692-4 0  9997",
        "second tle line": "2 43013  98.7428 179.6411 0001965  67.5213 292.6171 14.19555208403178"
    },
    {
        "name": "NOAA 21 (JPSS-2)",
        "first tle line": "1 54234U 22150A   25242.07395563  .00000133  00000+0  83733-4 0  9995",
        "second tle line": "2 54234  98.7290 179.7770 0000938 345.5791  14.5359 14.19553770145242"
    },
    {
        "name": "METEOR-M 2",
        "first tle line": "1 40069U 14037A   25242.28159875  .00000223  00000+0  12158-3 0  9990",
        "second tle line": "2 40069  98.4761 223.9351 0006184 151.0956 209.0566 14.21324141577995"
    },
    {
        "name": "METEOR-M2 2",
        "first tle line": "1 44387U 19038A   25242.27285164  .00000206  00000+0  10924-3 0  9993",
        "second tle line": "2 44387  98.8829 220.7878 0002146 112.5462 247.5944 14.24228859319889"
    }
]